{
    "links": {
        "self": "http://www.neowsapp.com/rest/v1/neo/3703001?api_key=iIulBulltgU6a56xZRHN4H3l9WmuAYTsLGpBGhQ2"
    },
    "id": "3703001",
    "neo_reference_id": "3703001",
    "name": "(2014 YK14)",
    "designation": "2014 YK14",
    "nasa_jpl_url": "http://ssd.jpl.nasa.gov/sbdb.cgi?sstr=3703001",
    "absolute_magnitude_h": 22.6,
    "estimated_diameter": {
        "kilometers": {
            "estimated_diameter_min": 0.0802703167,
            "estimated_diameter_max": 0.1794898848
        },
        "meters": {
            "estimated_diameter_min": 80.2703167283,
            "estimated_diameter_max": 179.4898847799
        },
        "miles": {
            "estimated_diameter_min": 0.049877647,
            "estimated_diameter_max": 0.1115298092
        },
        "feet": {
            "estimated_diameter_min": 263.3540659348,
            "estimated_diameter_max": 588.8775935812
        }
    },
    "is_potentially_hazardous_asteroid": false,
    "close_approach_data": [
        {
            "close_approach_date": "2014-08-15",
            "close_approach_date_full": "2014-Aug-15 17:19",
            "epoch_date_close_approach": 1408123140000,
            "relative_velocity": {
                "kilometers_per_second": "10.4536653607",
                "kilometers_per_hour": "37633.1952986161",
                "miles_per_hour": "23383.8040454096"
            },
            "miss_distance": {
                "astronomical": "0.4378781266",
                "lunar": "170.3345912474",
                "kilometers": "65505635.058950342",
                "miles": "40703314.1878730396"
            },
            "orbiting_body": "Earth"
        },
        {
            "close_approach_date": "2014-12-02",
            "close_approach_date_full": "2014-Dec-02 09:21",
            "epoch_date_close_approach": 1417512060000,
            "relative_velocity": {
                "kilometers_per_second": "13.2308378851",
                "kilometers_per_hour": "47631.0163864601",
                "miles_per_hour": "29596.0612652424"
            },
            "miss_distance": {
                "astronomical": "0.2154572587",
                "lunar": "83.8128736343",
                "kilometers": "32231946.977558969",
                "miles": "20028003.1410090122"
            },
            "orbiting_body": "Earth"
        }
    ],
    "orbital_data": {
        "orbit_id": "3",
        "orbit_determination_date": "2017-04-06 08:36:43",
        "first_observation_date": "2014-12-21",
        "last_observation_date": "2014-12-26",
        "data_arc_in_days": 5,
        "observations_used": 13,
        "orbit_uncertainty": "9",
        "minimum_orbit_intersection": ".184701",
        "jupiter_tisserand_invariant": "3.944",
        "epoch_osculation": "2457013.5",
        "eccentricity": ".4070610280351868",
        "semi_major_axis": "1.750174087450194",
        "inclination": "23.59075486290398",
        "ascending_node_longitude": "84.14877775433453",
        "orbital_period": "845.7077318886471",
        "perihelion_distance": "1.037746424172173",
        "perihelion_argument": "299.7707958050981",
        "aphelion_distance": "2.462601750728214",
        "perihelion_time": "2456944.284344453004",
        "mean_anomaly": "29.46364926955572",
        "mean_motion": ".4256789744561548",
        "equinox": "J2000",
        "orbit_class": {
            "orbit_class_type": "AMO",
            "orbit_class_description": "Near-Earth asteroid orbits similar to that of 1221 Amor",
            "orbit_class_range": "1.017 AU < q (perihelion) < 1.3 AU"
        }
    },
    "is_sentry_object": false
}